$$SOE
2461323.500000000, A.D. 2026-Oct-10 00:00:00.0000, 3.614559699690736E+09, 6.789583188919249E+09, 1.856596432736859E+08,
2461330.500000000, A.D. 2026-Oct-17 00:00:00.0000, 3.612618409371458E+09, 6.790847641136332E+09, 1.860721171550269E+08,
2461337.500000000, A.D. 2026-Oct-24 00:00:00.0000, 3.610676758786989E+09, 6.792111307978555E+09, 1.864845713373809E+08,
2461344.500000000, A.D. 2026-Oct-31 00:00:00.0000, 3.608734748924824E+09, 6.793374186608562E+09, 1.868970057157040E+08,
2461351.500000000, A.D. 2026-Nov-07 00:00:00.0000, 3.606792381571674E+09, 6.794636273559087E+09, 1.873094200635791E+08,
2461358.500000000, A.D. 2026-Nov-14 00:00:00.0000, 3.604849660395269E+09, 6.795897565253416E+09, 1.877218139694586E+08,
2461365.500000000, A.D. 2026-Nov-21 00:00:00.0000, 3.602906590842553E+09, 6.797158060006544E+09, 1.881341870024114E+08,
2461372.500000000, A.D. 2026-Nov-28 00:00:00.0000, 3.600963177856208E+09, 6.798417758498899E+09, 1.885465389533596E+08,
2461379.500000000, A.D. 2026-Dec-05 00:00:00.0000, 3.599019425029005E+09, 6.799676662066364E+09, 1.889588697664824E+08,
2461386.500000000, A.D. 2026-Dec-12 00:00:00.0000, 3.597075335360937E+09, 6.800934771917537E+09, 1.893711794001656E+08,
2461393.500000000, A.D. 2026-Dec-19 00:00:00.0000, 3.595130911731857E+09, 6.802192089284679E+09, 1.897834677914100E+08,
2461400.500000000, A.D. 2026-Dec-26 00:00:00.0000, 3.593186156947186E+09, 6.803448615640275E+09, 1.901957348660064E+08,
2461407.500000000, A.D. 2027-Jan-02 00:00:00.0000, 3.591241073632278E+09, 6.804704352788144E+09, 1.906079805537796E+08,
2461414.500000000, A.D. 2027-Jan-09 00:00:00.0000, 3.589295664091780E+09, 6.805959302849140E+09, 1.910202047999272E+08,
2461421.500000000, A.D. 2027-Jan-16 00:00:00.0000, 3.587349930168237E+09, 6.807213468150013E+09, 1.914324075700154E+08,
2461428.500000000, A.D. 2027-Jan-23 00:00:00.0000, 3.585403873144577E+09, 6.808466850975599E+09, 1.918445888411970E+08,
2461435.500000000, A.D. 2027-Jan-30 00:00:00.0000, 3.583457493876561E+09, 6.809719453136385E+09, 1.922567485584912E+08,
2461442.500000000, A.D. 2027-Feb-06 00:00:00.0000, 3.581510793578299E+09, 6.810971275691311E+09, 1.926688865448699E+08,
2461449.500000000, A.D. 2027-Feb-13 00:00:00.0000, 3.579563774798963E+09, 6.812222320045359E+09, 1.930810025069189E+08,
2461456.500000000, A.D. 2027-Feb-20 00:00:00.0000, 3.577616440225503E+09, 6.813472589630828E+09, 1.934930962880473E+08,
2461463.500000000, A.D. 2027-Feb-27 00:00:00.0000, 3.575668790706321E+09, 6.814722088958587E+09, 1.939051679784040E+08,
2461470.500000000, A.D. 2027-Mar-06 00:00:00.0000, 3.573720825513405E+09, 6.815970821961853E+09, 1.943172177615924E+08,
2461477.500000000, A.D. 2027-Mar-13 00:00:00.0000, 3.571772543242395E+09, 6.817218791681960E+09, 1.947292458122587E+08,
2461484.500000000, A.D. 2027-Mar-20 00:00:00.0000, 3.569823942220997E+09, 6.818466000461467E+09, 1.951412522797332E+08,
2461491.500000000, A.D. 2027-Mar-27 00:00:00.0000, 3.567875020627718E+09, 6.819712450095658E+09, 1.955532372942142E+08,
2461498.500000000, A.D. 2027-Apr-03 00:00:00.0000, 3.565925776523839E+09, 6.820958141894724E+09, 1.959652009728632E+08,
2461505.500000000, A.D. 2027-Apr-10 00:00:00.0000, 3.563976207859822E+09, 6.822203076679647E+09, 1.963771434220066E+08,
2461512.500000000, A.D. 2027-Apr-17 00:00:00.0000, 3.562026312478282E+09, 6.823447254697521E+09, 1.967890647322083E+08,
2461519.500000000, A.D. 2027-Apr-24 00:00:00.0000, 3.560076088192694E+09, 6.824690675394117E+09, 1.972009649538331E+08,
2461526.500000000, A.D. 2027-May-01 00:00:00.0000, 3.558125533241486E+09, 6.825933337071501E+09, 1.976128440278964E+08,
2461533.500000000, A.D. 2027-May-08 00:00:00.0000, 3.556174647424920E+09, 6.827175237179136E+09, 1.980247017051768E+08,
2461540.500000000, A.D. 2027-May-15 00:00:00.0000, 3.554223432427866E+09, 6.828416374191875E+09, 1.984365376688104E+08,
2461547.500000000, A.D. 2027-May-22 00:00:00.0000, 3.552271889764630E+09, 6.829656748483210E+09, 1.988483517920456E+08,
2461554.500000000, A.D. 2027-May-29 00:00:00.0000, 3.550320019701745E+09, 6.830896360725601E+09, 1.992601441034417E+08,
2461561.500000000, A.D. 2027-Jun-05 00:00:00.0000, 3.548367822043571E+09, 6.832135210949566E+09, 1.996719146343699E+08,
2461568.500000000, A.D. 2027-Jun-12 00:00:00.0000, 3.546415296773182E+09, 6.833373298693349E+09, 2.000836633683605E+08,
2461575.500000000, A.D. 2027-Jun-19 00:00:00.0000, 3.544462444217500E+09, 6.834610623308160E+09, 2.004953902463694E+08,
2461582.500000000, A.D. 2027-Jun-26 00:00:00.0000, 3.542509265016114E+09, 6.835847184157677E+09, 2.009070951811805E+08,
2461589.500000000, A.D. 2027-Jul-03 00:00:00.0000, 3.540555760025898E+09, 6.837082980720083E+09, 2.013187780696988E+08,
2461596.500000000, A.D. 2027-Jul-10 00:00:00.0000, 3.538601930198277E+09, 6.838318012601388E+09, 2.017304388007212E+08,
2461603.500000000, A.D. 2027-Jul-17 00:00:00.0000, 3.536647776465484E+09, 6.839552279421162E+09, 2.021420772519126E+08,
2461610.500000000, A.D. 2027-Jul-24 00:00:00.0000, 3.534693299792248E+09, 6.840785780507871E+09, 2.025536932567730E+08,
2461617.500000000, A.D. 2027-Jul-31 00:00:00.0000, 3.532738501804316E+09, 6.842018514639347E+09, 2.029652865233073E+08,
2461624.500000000, A.D. 2027-Aug-07 00:00:00.0000, 3.530783385793125E+09, 6.843250480980095E+09, 2.033768566171422E+08,
2461631.500000000, A.D. 2027-Aug-14 00:00:00.0000, 3.528827955795465E+09, 6.844481680962150E+09, 2.037884031995196E+08,
2461638.500000000, A.D. 2027-Aug-21 00:00:00.0000, 3.526872214366390E+09, 6.845712117745270E+09, 2.041999261885996E+08,
2461645.500000000, A.D. 2027-Aug-28 00:00:00.0000, 3.524916162476396E+09, 6.846941794459738E+09, 2.046114256276560E+08,
2461652.500000000, A.D. 2027-Sep-04 00:00:00.0000, 3.522959800351768E+09, 6.848170713734008E+09, 2.050229015729094E+08,
2461659.500000000, A.D. 2027-Sep-11 00:00:00.0000, 3.521003127862738E+09, 6.849398877845946E+09, 2.054343540746894E+08,
2461666.500000000, A.D. 2027-Sep-18 00:00:00.0000, 3.519046144592669E+09, 6.850626288847578E+09, 2.058457831863499E+08,
2461673.500000000, A.D. 2027-Sep-25 00:00:00.0000, 3.517088849817106E+09, 6.851852948585927E+09, 2.062571889733500E+08,
2461680.500000000, A.D. 2027-Oct-02 00:00:00.0000, 3.515131242467772E+09, 6.853078858647861E+09, 2.066685715175810E+08,
2461687.500000000, A.D. 2027-Oct-09 00:00:00.0000, 3.513173321104026E+09, 6.854304020224834E+09, 2.070799309142628E+08,
2461694.500000000, A.D. 2027-Oct-16 00:00:00.0000, 3.511215083955040E+09, 6.855528433843063E+09, 2.074912672509274E+08,
2461701.500000000, A.D. 2027-Oct-23 00:00:00.0000, 3.509256529292710E+09, 6.856752098953836E+09, 2.079025805439687E+08,
2461708.500000000, A.D. 2027-Oct-30 00:00:00.0000, 3.507297656510148E+09, 6.857975013994649E+09, 2.083138706481495E+08,
2461715.500000000, A.D. 2027-Nov-06 00:00:00.0000, 3.505338466742434E+09, 6.859197178049576E+09, 2.087251373378577E+08,
2461722.500000000, A.D. 2027-Nov-13 00:00:00.0000, 3.503378961044262E+09, 6.860418592032893E+09, 2.091363805724645E+08,
2461729.500000000, A.D. 2027-Nov-20 00:00:00.0000, 3.501419139026413E+09, 6.861639257210274E+09, 2.095476005009842E+08,
2461736.500000000, A.D. 2027-Nov-27 00:00:00.0000, 3.499458999568628E+09, 6.862859174022079E+09, 2.099587972999873E+08,
2461743.500000000, A.D. 2027-Dec-04 00:00:00.0000, 3.497498541585372E+09, 6.864078342122841E+09, 2.103699711050477E+08,
2461750.500000000, A.D. 2027-Dec-11 00:00:00.0000, 3.495537764293900E+09, 6.865296760672960E+09, 2.107811220075302E+08,
2461757.500000000, A.D. 2027-Dec-18 00:00:00.0000, 3.493576667259609E+09, 6.866514428543693E+09, 2.111922500638428E+08,
2461764.500000000, A.D. 2027-Dec-25 00:00:00.0000, 3.491615250370675E+09, 6.867731344433287E+09, 2.116033553031344E+08,
2461771.500000000, A.D. 2028-Jan-01 00:00:00.0000, 3.489653513783383E+09, 6.868947506909038E+09, 2.120144377309270E+08,
$$EOE